QIANFAN-65              
1 62795U 25016L   26003.28319039  .00000221  00000+0  32396-3 0  9999
2 62795  88.9762 100.8339 0012156 279.6968  80.2809 13.50979698 50152
QIANFAN-66              
1 62796U 25016M   26003.31200575  .00000223  00000+0  32648-3 0  9990
2 62796  88.9782 100.8053 0013287 274.6856  85.2777 13.50984665 50200
QIANFAN-67              
1 62797U 25016N   26003.31618912  .00000217  00000+0  31823-3 0  9996
2 62797  88.9772 100.8283 0013210 282.4849  77.4824 13.50988800 50177
QIANFAN-68              
1 62798U 25016P   26002.78940046  .00000203  00000+0  29570-3 0  9994
2 62798  88.9776 100.9286 0013272 282.2330  77.7335 13.50990943 50088
QIANFAN-69              
1 62799U 25016Q   26003.25024194  .00000229  00000+0  33646-3 0  9992
2 62799  88.9754 100.7459 0014021 282.0028  77.9551 13.50981112 50181
QIANFAN-70              
1 62800U 25016R   26003.26680430  .00000233  00000+0  34220-3 0  9991
2 62800  88.9775 100.8873 0013695 271.1003  88.8579 13.50984944 50149
QIANFAN-71              
1 62801U 25016S   26003.26260977  .00000236  00000+0  34634-3 0  9994
2 62801  88.9769 100.8658 0013924 286.0231  73.9387 13.50984413 50140
QIANFAN-72              
1 62802U 25016T   26003.27905997  .00000218  00000+0  31851-3 0  9992
2 62802  88.9760 100.8754 0017185 294.0083  65.9269 13.50984154 50137
